[{"OBJECT_NAME":"GLOBALSTAR M086","OBJECT_ID":"2011-080F","EPOCH":"2026-03-09T22:45:15.558336","MEAN_MOTION":12.62283911,"ECCENTRICITY":0.00012005,"INCLINATION":51.9888,"RA_OF_ASC_NODE":270.5949,"ARG_OF_PERICENTER":151.4075,"MEAN_ANOMALY":356.929,"EPHEMERIS_TYPE":0,"CLASSIFICATION_TYPE":"U","NORAD_CAT_ID":38045,"ELEMENT_SET_NO":999,"REV_AT_EPOCH":65712,"BSTAR":0.00020861954,"MEAN_MOTION_DOT":-6.6e-7,"MEAN_MOTION_DDOT":0},{"OBJECT_NAME":"COSMOS 2043","OBJECT_ID":"1989-074F","EPOCH":"2026-03-09T16:41:00.000096","MEAN_MOTION":12.63548364,"ECCENTRICITY":0.00047032,"INCLINATION":82.5733,"RA_OF_ASC_NODE":286.7958,"ARG_OF_PERICENTER":87.9698,"MEAN_ANOMALY":336.495,"EPHEMERIS_TYPE":0,"CLASSIFICATION_TYPE":"U","NORAD_CAT_ID":20237,"ELEMENT_SET_NO":999,"REV_AT_EPOCH":68233,"BSTAR":8.2839343e-5,"MEAN_MOTION_DOT":2.6e-7,"MEAN_MOTION_DDOT":0}]
